STARLINK-31416          
1 59355U 24060H   25363.21243161  .00002197  00000+0  89309-4 0  9999
2 59355  43.0021 297.9305 0000807 310.7622  49.3160 15.27583529 99288
STARLINK-31552          
1 59356U 24060J   25362.18809694  .00001114  00000+0  49969-4 0  9990
2 59356  42.9977 304.0160 0000721 252.5159 107.5613 15.27588800 99129
STARLINK-31557          
1 59357U 24060K   25363.16279880 -.00001560  00000+0 -47151-4 0  9996
2 59357  42.9999 294.0627 0000992 272.5826  87.4912 15.27592830 99321
STARLINK-31559          
1 59358U 24060L   25362.21750436  .00001360  00000+0  58927-4 0  9992
2 59358  43.0000 303.3653 0001173 262.7775  97.2944 15.27580157 99138
STARLINK-31501          
1 59359U 24060M   25362.83425444  .00003843  00000+0  14917-3 0  9997
2 59359  43.0008 300.2560 0000941 295.6237  64.4517 15.27564961 99227
STARLINK-31549          
1 59360U 24060N   25363.18673270  .00000013  00000+0  99787-5 0  9996
2 59360  43.0033 297.7331 0000565 291.1553  68.9238 15.27578860 99285
STARLINK-31560          
1 59361U 24060P   25362.17394282  .00002981  00000+0  11774-3 0  9992
2 59361  43.0041 303.8929 0001322 272.6764  87.3936 15.27598986 99121
STARLINK-31571          
1 59362U 24060Q   25362.83039934 -.00002365  00000+0 -76422-4 0  9996
2 59362  43.0017 300.2192 0001028 271.4919  88.5815 15.27589484 99223
STARLINK-31553          
1 59363U 24060R   25362.23131801  .00001272  00000+0  55726-4 0  9995
2 59363  43.0009 296.5261 0001145 273.3862  86.6859 15.27578527 99219
STARLINK-31547          
1 59364U 24060S   25362.21880745 -.00000154  00000+0  39458-5 0  9996
2 59364  43.0020 292.1255 0001317 277.3263  82.7439 15.27582914 99269
STARLINK-31537          
1 59365U 24060T   25363.16502761  .00002248  00000+0  91137-4 0  9997
2 59365  43.0021 298.4320 0001411 273.4419  86.6271 15.27601613 99274
STARLINK-31451          
1 59366U 24060U   25363.18287711  .00001897  00000+0  78425-4 0  9999
2 59366  43.0005 297.7016 0000935 294.2464  65.8290 15.27586958 99287
STARLINK-31428          
1 59367U 24060V   25363.19444404  .00000574  00000+0  30383-4 0  9997
2 59367  43.0018 297.7910 0000757 277.2015  82.8751 15.27581278 99281
STARLINK-31419          
1 59368U 24060W   25362.54701840  .00000643  00000+0  32885-4 0  9992
2 59368  42.9985 301.5327 0000951  74.4597 285.6359 15.27569772 99188
STARLINK-31583          
1 59369U 24060X   25363.48941507  .00002372  00000+0  95685-4 0  9991
2 59369  43.0052 285.3172 0000951 305.9359  54.1405 15.27576772 99450
STARLINK-31461          
1 59370U 24060Y   25363.17405080  .00000491  00000+0  27362-4 0  9997
2 59370  43.0002 287.2548 0000356 241.4828 118.5988 15.27581540 99347
STARLINK-31641          
1 59374U 24062A   25363.81772271  .00000702  00000+0  35822-4 0  9998
2 59374  53.1598 223.0624 0001449  88.2433 271.8734 15.30194117 98928
