[{"OBJECT_NAME":"STARLINK-31416","OBJECT_ID":"2024-060H","EPOCH":"2025-12-29T05:05:54.091104","MEAN_MOTION":15.27583529,"ECCENTRICITY":8.07e-5,"INCLINATION":43.0021,"RA_OF_ASC_NODE":297.9305,"ARG_OF_PERICENTER":310.7622,"MEAN_ANOMALY":49.316,"EPHEMERIS_TYPE":0,"CLASSIFICATION_TYPE":"U","NORAD_CAT_ID":59355,"ELEMENT_SET_NO":999,"REV_AT_EPOCH":9928,"BSTAR":8.9309e-5,"MEAN_MOTION_DOT":2.197e-5,"MEAN_MOTION_DDOT":0},{"OBJECT_NAME":"STARLINK-31552","OBJECT_ID":"2024-060J","EPOCH":"2025-12-28T04:30:51.575616","MEAN_MOTION":15.275888,"ECCENTRICITY":7.21e-5,"INCLINATION":42.9977,"RA_OF_ASC_NODE":304.016,"ARG_OF_PERICENTER":252.5159,"MEAN_ANOMALY":107.5613,"EPHEMERIS_TYPE":0,"CLASSIFICATION_TYPE":"U","NORAD_CAT_ID":59356,"ELEMENT_SET_NO":999,"REV_AT_EPOCH":9912,"BSTAR":4.9969e-5,"MEAN_MOTION_DOT":1.114e-5,"MEAN_MOTION_DDOT":0},{"OBJECT_NAME":"STARLINK-31557","OBJECT_ID":"2024-060K","EPOCH":"2025-12-29T03:54:25.816320","MEAN_MOTION":15.2759283,"ECCENTRICITY":9.924e-5,"INCLINATION":42.9999,"RA_OF_ASC_NODE":294.0627,"ARG_OF_PERICENTER":272.5826,"MEAN_ANOMALY":87.4912,"EPHEMERIS_TYPE":0,"CLASSIFICATION_TYPE":"U","NORAD_CAT_ID":59357,"ELEMENT_SET_NO":999,"REV_AT_EPOCH":9932,"BSTAR":-4.7150737e-5,"MEAN_MOTION_DOT":-1.56e-5,"MEAN_MOTION_DDOT":0},{"OBJECT_NAME":"STARLINK-31559","OBJECT_ID":"2024-060L","EPOCH":"2025-12-28T05:13:12.376704","MEAN_MOTION":15.27580157,"ECCENTRICITY":0.0001173,"INCLINATION":43,"RA_OF_ASC_NODE":303.3653,"ARG_OF_PERICENTER":262.7775,"MEAN_ANOMALY":97.2944,"EPHEMERIS_TYPE":0,"CLASSIFICATION_TYPE":"U","NORAD_CAT_ID":59358,"ELEMENT_SET_NO":999,"REV_AT_EPOCH":9913,"BSTAR":5.8927e-5,"MEAN_MOTION_DOT":1.36e-5,"MEAN_MOTION_DDOT":0},{"OBJECT_NAME":"STARLINK-31501","OBJECT_ID":"2024-060M","EPOCH":"2025-12-28T20:01:19.583616","MEAN_MOTION":15.27564961,"ECCENTRICITY":9.416e-5,"INCLINATION":43.0008,"RA_OF_ASC_NODE":300.256,"ARG_OF_PERICENTER":295.6237,"MEAN_ANOMALY":64.4517,"EPHEMERIS_TYPE":0,"CLASSIFICATION_TYPE":"U","NORAD_CAT_ID":59359,"ELEMENT_SET_NO":999,"REV_AT_EPOCH":9922,"BSTAR":0.00014917073,"MEAN_MOTION_DOT":3.843e-5,"MEAN_MOTION_DDOT":0},{"OBJECT_NAME":"STARLINK-31549","OBJECT_ID":"2024-060N","EPOCH":"2025-12-29T04:28:53.705280","MEAN_MOTION":15.2757886,"ECCENTRICITY":5.655e-5,"INCLINATION":43.0033,"RA_OF_ASC_NODE":297.7331,"ARG_OF_PERICENTER":291.1553,"MEAN_ANOMALY":68.9238,"EPHEMERIS_TYPE":0,"CLASSIFICATION_TYPE":"U","NORAD_CAT_ID":59360,"ELEMENT_SET_NO":999,"REV_AT_EPOCH":9928,"BSTAR":9.978674e-6,"MEAN_MOTION_DOT":1.3e-7,"MEAN_MOTION_DDOT":0},{"OBJECT_NAME":"STARLINK-31560","OBJECT_ID":"2024-060P","EPOCH":"2025-12-28T04:10:28.659648","MEAN_MOTION":15.27598986,"ECCENTRICITY":0.0001322,"INCLINATION":43.0041,"RA_OF_ASC_NODE":303.8929,"ARG_OF_PERICENTER":272.6764,"MEAN_ANOMALY":87.3936,"EPHEMERIS_TYPE":0,"CLASSIFICATION_TYPE":"U","NORAD_CAT_ID":59361,"ELEMENT_SET_NO":999,"REV_AT_EPOCH":9912,"BSTAR":0.00011774,"MEAN_MOTION_DOT":2.981e-5,"MEAN_MOTION_DDOT":0},{"OBJECT_NAME":"STARLINK-31571","OBJECT_ID":"2024-060Q","EPOCH":"2025-12-28T19:55:46.502976","MEAN_MOTION":15.27589484,"ECCENTRICITY":0.00010282,"INCLINATION":43.0017,"RA_OF_ASC_NODE":300.2192,"ARG_OF_PERICENTER":271.4919,"MEAN_ANOMALY":88.5815,"EPHEMERIS_TYPE":0,"CLASSIFICATION_TYPE":"U","NORAD_CAT_ID":59362,"ELEMENT_SET_NO":999,"REV_AT_EPOCH":9922,"BSTAR":-7.6421559e-5,"MEAN_MOTION_DOT":-2.365e-5,"MEAN_MOTION_DDOT":0},{"OBJECT_NAME":"STARLINK-31553","OBJECT_ID":"2024-060R","EPOCH":"2025-12-28T05:33:05.876064","MEAN_MOTION":15.27578527,"ECCENTRICITY":0.0001145,"INCLINATION":43.0009,"RA_OF_ASC_NODE":296.5261,"ARG_OF_PERICENTER":273.3862,"MEAN_ANOMALY":86.6859,"EPHEMERIS_TYPE":0,"CLASSIFICATION_TYPE":"U","NORAD_CAT_ID":59363,"ELEMENT_SET_NO":999,"REV_AT_EPOCH":9921,"BSTAR":5.5726e-5,"MEAN_MOTION_DOT":1.272e-5,"MEAN_MOTION_DDOT":0},{"OBJECT_NAME":"STARLINK-31547","OBJECT_ID":"2024-060S","EPOCH":"2025-12-28T05:15:04.963680","MEAN_MOTION":15.27582914,"ECCENTRICITY":0.0001317,"INCLINATION":43.002,"RA_OF_ASC_NODE":292.1255,"ARG_OF_PERICENTER":277.3263,"MEAN_ANOMALY":82.7439,"EPHEMERIS_TYPE":0,"CLASSIFICATION_TYPE":"U","NORAD_CAT_ID":59364,"ELEMENT_SET_NO":999,"REV_AT_EPOCH":9926,"BSTAR":3.9458e-6,"MEAN_MOTION_DOT":-1.54e-6,"MEAN_MOTION_DDOT":0},{"OBJECT_NAME":"STARLINK-31537","OBJECT_ID":"2024-060T","EPOCH":"2025-12-29T03:57:38.385504","MEAN_MOTION":15.27601613,"ECCENTRICITY":0.00014114,"INCLINATION":43.0021,"RA_OF_ASC_NODE":298.432,"ARG_OF_PERICENTER":273.4419,"MEAN_ANOMALY":86.6271,"EPHEMERIS_TYPE":0,"CLASSIFICATION_TYPE":"U","NORAD_CAT_ID":59365,"ELEMENT_SET_NO":999,"REV_AT_EPOCH":9927,"BSTAR":9.1136624e-5,"MEAN_MOTION_DOT":2.248e-5,"MEAN_MOTION_DDOT":0},{"OBJECT_NAME":"STARLINK-31451","OBJECT_ID":"2024-060U","EPOCH":"2025-12-29T04:23:20.582304","MEAN_MOTION":15.27586958,"ECCENTRICITY":9.351e-5,"INCLINATION":43.0005,"RA_OF_ASC_NODE":297.7016,"ARG_OF_PERICENTER":294.2464,"MEAN_ANOMALY":65.829,"EPHEMERIS_TYPE":0,"CLASSIFICATION_TYPE":"U","NORAD_CAT_ID":59366,"ELEMENT_SET_NO":999,"REV_AT_EPOCH":9928,"BSTAR":7.842508e-5,"MEAN_MOTION_DOT":1.897e-5,"MEAN_MOTION_DDOT":0},{"OBJECT_NAME":"STARLINK-31428","OBJECT_ID":"2024-060V","EPOCH":"2025-12-29T04:39:59.965056","MEAN_MOTION":15.27581278,"ECCENTRICITY":7.57e-5,"INCLINATION":43.0018,"RA_OF_ASC_NODE":297.791,"ARG_OF_PERICENTER":277.2015,"MEAN_ANOMALY":82.8751,"EPHEMERIS_TYPE":0,"CLASSIFICATION_TYPE":"U","NORAD_CAT_ID":59367,"ELEMENT_SET_NO":999,"REV_AT_EPOCH":9928,"BSTAR":3.0383e-5,"MEAN_MOTION_DOT":5.74e-6,"MEAN_MOTION_DDOT":0},{"OBJECT_NAME":"STARLINK-31419","OBJECT_ID":"2024-060W","EPOCH":"2025-12-28T13:07:42.389760","MEAN_MOTION":15.27569772,"ECCENTRICITY":9.51e-5,"INCLINATION":42.9985,"RA_OF_ASC_NODE":301.5327,"ARG_OF_PERICENTER":74.4597,"MEAN_ANOMALY":285.6359,"EPHEMERIS_TYPE":0,"CLASSIFICATION_TYPE":"U","NORAD_CAT_ID":59368,"ELEMENT_SET_NO":999,"REV_AT_EPOCH":9918,"BSTAR":3.2885e-5,"MEAN_MOTION_DOT":6.43e-6,"MEAN_MOTION_DDOT":0},{"OBJECT_NAME":"STARLINK-31583","OBJECT_ID":"2024-060X","EPOCH":"2025-12-29T11:44:45.462048","MEAN_MOTION":15.27576772,"ECCENTRICITY":9.51e-5,"INCLINATION":43.0052,"RA_OF_ASC_NODE":285.3172,"ARG_OF_PERICENTER":305.9359,"MEAN_ANOMALY":54.1405,"EPHEMERIS_TYPE":0,"CLASSIFICATION_TYPE":"U","NORAD_CAT_ID":59369,"ELEMENT_SET_NO":999,"REV_AT_EPOCH":9945,"BSTAR":9.5685e-5,"MEAN_MOTION_DOT":2.372e-5,"MEAN_MOTION_DDOT":0},{"OBJECT_NAME":"STARLINK-31461","OBJECT_ID":"2024-060Y","EPOCH":"2025-12-29T04:10:37.989120","MEAN_MOTION":15.2758154,"ECCENTRICITY":3.56e-5,"INCLINATION":43.0002,"RA_OF_ASC_NODE":287.2548,"ARG_OF_PERICENTER":241.4828,"MEAN_ANOMALY":118.5988,"EPHEMERIS_TYPE":0,"CLASSIFICATION_TYPE":"U","NORAD_CAT_ID":59370,"ELEMENT_SET_NO":999,"REV_AT_EPOCH":9934,"BSTAR":2.7361553e-5,"MEAN_MOTION_DOT":4.91e-6,"MEAN_MOTION_DDOT":0},{"OBJECT_NAME":"STARLINK-31641","OBJECT_ID":"2024-062A","EPOCH":"2025-12-29T19:37:31.242144","MEAN_MOTION":15.30194117,"ECCENTRICITY":0.0001449,"INCLINATION":53.1598,"RA_OF_ASC_NODE":223.0624,"ARG_OF_PERICENTER":88.2433,"MEAN_ANOMALY":271.8734,"EPHEMERIS_TYPE":0,"CLASSIFICATION_TYPE":"U","NORAD_CAT_ID":59374,"ELEMENT_SET_NO":999,"REV_AT_EPOCH":9892,"BSTAR":3.5822e-5,"MEAN_MOTION_DOT":7.02e-6,"MEAN_MOTION_DDOT":0}]
